OBJECT_NAME,OBJECT_ID,EPOCH,MEAN_MOTION,ECCENTRICITY,INCLINATION,RA_OF_ASC_NODE,ARG_OF_PERICENTER,MEAN_ANOMALY,EPHEMERIS_TYPE,CLASSIFICATION_TYPE,NORAD_CAT_ID,ELEMENT_SET_NO,REV_AT_EPOCH,BSTAR,MEAN_MOTION_DOT,MEAN_MOTION_DDOT
STARLINK-5176,2022-136C,2026-06-30T20:00:01.999008,15.29346333,.0000981,53.1592,194.9308,78.6179,166.9837,0,U,54053,999,583,.1066E-2,.30521E-3,0
STARLINK-5163,2022-136D,2026-06-30T20:00:01.999008,15.17726141,.0002132,53.1590,195.9652,58.9382,43.3865,0,U,54054,999,573,.45899E-2,.94644E-3,0
STARLINK-5158,2022-136E,2026-06-30T07:28:18.626016,15.08829541,.00005598,53.1581,198.5291,108.2274,251.8778,0,U,54055,999,20384,.39562658E-4,.342E-5,0
STARLINK-5226,2022-136F,2026-06-30T04:33:19.840608,15.08836543,.00010364,53.1584,198.4988,77.7637,282.3471,0,U,54056,999,20383,.3715054E-4,.303E-5,0
STARLINK-5167,2022-136H,2026-06-30T08:42:28.685664,15.08832928,.00011428,53.1586,198.1432,81.9840,278.1281,0,U,54058,999,20385,.35909274E-4,.284E-5,0
STARLINK-5173,2022-136J,2026-06-30T08:47:47.069664,15.08832354,.00011255,53.1584,198.1664,81.3598,278.7520,0,U,54059,999,20385,.17228958E-4,-.14E-6,0
STARLINK-5169,2022-136K,2026-06-30T04:37:19.325856,15.08830894,.00011493,53.1584,168.5589,69.8488,290.2627,0,U,54060,999,20425,.1879776E-5,-.258E-5,0
STARLINK-5209,2022-136L,2026-06-30T10:56:51.944928,15.08833048,.00014061,53.1585,162.3251,87.6815,272.4337,0,U,54061,999,20436,.22995297E-4,.78E-6,0
STARLINK-5170,2022-136M,2026-06-30T08:37:10.315488,15.08830687,.00011823,53.1585,198.1202,81.4085,278.7040,0,U,54062,999,20385,.12065291E-4,-.96E-6,0
STARLINK-5172,2022-136P,2026-06-30T20:00:01.999008,15.29331992,.0001389,53.1608,150.0198,96.0805,139.0814,0,U,54064,999,583,.17313E-2,.49902E-3,0
STARLINK-5187,2022-136Q,2026-06-30T06:45:52.163136,15.08828818,.00010619,53.1598,198.3522,75.2332,284.8777,0,U,54065,999,20384,.17036149E-4,-.17E-6,0
STARLINK-5151,2022-136R,2026-06-30T08:56:44.657376,15.08018551,.00012225,53.1991,198.3580,76.6589,283.4539,0,U,54066,999,20385,.45658252E-4,.425E-5,0
STARLINK-5174,2022-136S,2026-06-30T11:21:24.723648,15.08830478,.00010235,53.1591,197.4134,77.7278,282.3828,0,U,54067,999,20387,.16937399E-4,-.18E-6,0
STARLINK-5222,2022-136T,2026-06-30T13:02:06.139104,15.08831588,.0001079,53.1592,197.1377,75.2353,284.8758,0,U,54068,999,20388,.27119E-4,.144E-5,0
STARLINK-5181,2022-136V,2026-06-30T11:10:47.633376,15.08833117,.00009422,53.1589,197.3669,72.6923,287.4171,0,U,54070,999,20387,-.2243288E-5,-.324E-5,0
STARLINK-5168,2022-136W,2026-06-30T11:05:30.452064,15.08821727,.00010064,53.1584,197.3456,102.3032,257.8072,0,U,54071,999,20387,.35319622E-3,.5335E-4,0
STARLINK-5146,2022-136Y,2026-06-30T07:52:44.121216,15.08836007,.00012107,53.1596,192.9509,78.4816,281.6312,0,U,54073,999,20392,-.49079469E-4,-.1069E-4,0
STARLINK-5192,2022-136Z,2026-06-30T07:49:24.352320,15.08837944,.0001161,53.1591,197.9161,82.4673,277.6450,0,U,54074,999,20385,.39854698E-4,.346E-5,0
STARLINK-5212,2022-136AA,2026-06-30T07:43:37.786368,15.29363493,.00017058,53.1603,191.5115,105.3536,254.7653,0,U,54075,999,20394,.19365095E-4,.203E-5,0
STARLINK-5201,2022-136AB,2026-06-30T07:34:59.594592,15.08836690,.00009719,53.1581,198.5472,94.9053,265.2049,0,U,54076,999,20384,.2906415E-4,.175E-5,0
STARLINK-5171,2022-136AC,2026-06-30T04:56:45.395808,15.08833741,.00012298,53.1592,174.4757,84.5631,275.5500,0,U,54077,999,20417,.347657E-6,-.282E-5,0
STARLINK-5175,2022-136AE,2026-06-30T05:59:33.509760,15.08830868,.00011311,53.1592,188.8675,91.5856,268.5265,0,U,54079,999,20397,-.4560573E-5,-.36E-5,0
STARLINK-5210,2022-136AH,2026-06-30T07:29:38.627232,15.08830711,.0001565,53.1584,188.5462,90.9637,269.1534,0,U,54082,999,20398,-.21679725E-4,-.633E-5,0
STARLINK-5178,2022-136AJ,2026-06-30T07:13:43.203072,15.08833584,.00011572,53.1588,188.4796,74.2250,285.8869,0,U,54083,999,20398,-.3181766E-5,-.339E-5,0
STARLINK-5183,2022-136AK,2026-06-30T07:24:20.005632,15.08832370,.00011699,53.1582,188.5231,79.6254,280.4869,0,U,54084,999,20398,-.2097477E-5,-.321E-5,0
STARLINK-5166,2022-136AL,2026-06-30T07:09:47.621376,15.08822307,.0001446,53.1593,188.4615,75.9260,284.1892,0,U,54085,999,20398,.55599822E-4,.597E-5,0
STARLINK-5211,2022-136AM,2026-06-30T07:13:03.916128,15.08833189,.00012689,53.1593,173.5162,82.9209,277.1927,0,U,54086,999,20419,.29457296E-4,.181E-5,0
STARLINK-5184,2022-136AN,2026-06-30T07:50:43.312416,15.08847973,.00011403,53.1584,187.9358,88.5419,271.5703,0,U,54087,999,20399,.1684587E-3,.2395E-4,0
STARLINK-5153,2022-136AP,2026-06-30T07:19:01.610400,15.08832802,.00013294,53.1589,188.5013,66.6976,293.4155,0,U,54088,999,20398,.4988663E-5,-.209E-5,0
STARLINK-5143,2022-136AQ,2026-06-30T06:47:13.205472,15.08832543,.00008073,53.1591,188.3682,85.5528,274.5556,0,U,54089,999,20398,.10023738E-3,.1308E-4,0
