[
  {
    "name": "STARLINK-5176",
    "noradId": "54053",
    "line1": "1 54053U 22136C   26181.83335647  .00030521  00000+0  10660-2 0  9993",
    "line2": "2 54053  53.1592 194.9308 0000981  78.6179 166.9837 15.29346333  5839"
  },
  {
    "name": "STARLINK-5163",
    "noradId": "54054",
    "line1": "1 54054U 22136D   26181.83335647  .00094644  00000+0  45899-2 0  9992",
    "line2": "2 54054  53.1590 195.9652 0002132  58.9382  43.3865 15.17726141  5732"
  },
  {
    "name": "STARLINK-5158",
    "noradId": "54055",
    "line1": "1 54055U 22136E   26181.31132669  .00000342  00000+0  39563-4 0  9990",
    "line2": "2 54055  53.1581 198.5291 0000559 108.2274 251.8778 15.08829541203840"
  },
  {
    "name": "STARLINK-5226",
    "noradId": "54056",
    "line1": "1 54056U 22136F   26181.18981297  .00000303  00000+0  37151-4 0  9993",
    "line2": "2 54056  53.1584 198.4988 0001036  77.7637 282.3471 15.08836543203838"
  },
  {
    "name": "STARLINK-5167",
    "noradId": "54058",
    "line1": "1 54058U 22136H   26181.36283201  .00000284  00000+0  35909-4 0  9992",
    "line2": "2 54058  53.1586 198.1432 0001142  81.9840 278.1281 15.08832928203851"
  },
  {
    "name": "STARLINK-5173",
    "noradId": "54059",
    "line1": "1 54059U 22136J   26181.36651701 -.00000014  00000+0  17229-4 0  9994",
    "line2": "2 54059  53.1584 198.1664 0001125  81.3598 278.7520 15.08832354203857"
  },
  {
    "name": "STARLINK-5169",
    "noradId": "54060",
    "line1": "1 54060U 22136K   26181.19258479 -.00000258  00000+0  18798-5 0  9995",
    "line2": "2 54060  53.1584 168.5589 0001149  69.8488 290.2627 15.08830894204250"
  },
  {
    "name": "STARLINK-5209",
    "noradId": "54061",
    "line1": "1 54061U 22136L   26181.45615677  .00000078  00000+0  22995-4 0  9994",
    "line2": "2 54061  53.1585 162.3251 0001406  87.6815 272.4337 15.08833048204364"
  },
  {
    "name": "STARLINK-5170",
    "noradId": "54062",
    "line1": "1 54062U 22136M   26181.35914717 -.00000096  00000+0  12065-4 0  9999",
    "line2": "2 54062  53.1585 198.1202 0001182  81.4085 278.7040 15.08830687203859"
  },
  {
    "name": "STARLINK-5172",
    "noradId": "54064",
    "line1": "1 54064U 22136P   26181.83335647  .00049902  00000+0  17313-2 0  9990",
    "line2": "2 54064  53.1608 150.0198 0001389  96.0805 139.0814 15.29331992  5833"
  },
  {
    "name": "STARLINK-5187",
    "noradId": "54065",
    "line1": "1 54065U 22136Q   26181.28185374 -.00000017  00000+0  17036-4 0  9999",
    "line2": "2 54065  53.1598 198.3522 0001061  75.2332 284.8777 15.08828818203842"
  },
  {
    "name": "STARLINK-5151",
    "noradId": "54066",
    "line1": "1 54066U 22136R   26181.37273909  .00000425  00000+0  45658-4 0  9995",
    "line2": "2 54066  53.1991 198.3580 0001222  76.6589 283.4539 15.08018551203859"
  },
  {
    "name": "STARLINK-5174",
    "noradId": "54067",
    "line1": "1 54067U 22136S   26181.47320282 -.00000018  00000+0  16937-4 0  9991",
    "line2": "2 54067  53.1591 197.4134 0001023  77.7278 282.3828 15.08830478203878"
  },
  {
    "name": "STARLINK-5222",
    "noradId": "54068",
    "line1": "1 54068U 22136T   26181.54312661  .00000144  00000+0  27119-4 0  9995",
    "line2": "2 54068  53.1592 197.1377 0001079  75.2353 284.8758 15.08831588203887"
  },
  {
    "name": "STARLINK-5181",
    "noradId": "54070",
    "line1": "1 54070U 22136V   26181.46582909 -.00000324  00000+0 -22433-5 0  9990",
    "line2": "2 54070  53.1589 197.3669 0000942  72.6923 287.4171 15.08833117203871"
  },
  {
    "name": "STARLINK-5168",
    "noradId": "54071",
    "line1": "1 54071U 22136W   26181.46215801  .00005335  00000+0  35320-3 0  9997",
    "line2": "2 54071  53.1584 197.3456 0001006 102.3032 257.8072 15.08821727203870"
  },
  {
    "name": "STARLINK-5146",
    "noradId": "54073",
    "line1": "1 54073U 22136Y   26181.32828844 -.00001069  00000+0 -49079-4 0  9990",
    "line2": "2 54073  53.1596 192.9509 0001210  78.4816 281.6312 15.08836007203920"
  },
  {
    "name": "STARLINK-5192",
    "noradId": "54074",
    "line1": "1 54074U 22136Z   26181.32597630  .00000346  00000+0  39855-4 0  9993",
    "line2": "2 54074  53.1591 197.9161 0001161  82.4673 277.6450 15.08837944203857"
  },
  {
    "name": "STARLINK-5212",
    "noradId": "54075",
    "line1": "1 54075U 22136AA  26181.32196512  .00000203  00000+0  19365-4 0  9994",
    "line2": "2 54075  53.1603 191.5115 0001705 105.3536 254.7653 15.29363493203945"
  },
  {
    "name": "STARLINK-5201",
    "noradId": "54076",
    "line1": "1 54076U 22136AB  26181.31596753  .00000175  00000+0  29064-4 0  9990",
    "line2": "2 54076  53.1581 198.5472 0000971  94.9053 265.2049 15.08836690203841"
  },
  {
    "name": "STARLINK-5171",
    "noradId": "54077",
    "line1": "1 54077U 22136AC  26181.20608097 -.00000282  00000+0  34766-6 0  9991",
    "line2": "2 54077  53.1592 174.4757 0001229  84.5631 275.5500 15.08833741204174"
  },
  {
    "name": "STARLINK-5175",
    "noradId": "54079",
    "line1": "1 54079U 22136AE  26181.24969340 -.00000360  00000+0 -45606-5 0  9990",
    "line2": "2 54079  53.1592 188.8675 0001131  91.5856 268.5265 15.08830868203977"
  },
  {
    "name": "STARLINK-5210",
    "noradId": "54082",
    "line1": "1 54082U 22136AH  26181.31225263 -.00000633  00000+0 -21680-4 0  9999",
    "line2": "2 54082  53.1584 188.5462 0001565  90.9637 269.1534 15.08830711203988"
  },
  {
    "name": "STARLINK-5178",
    "noradId": "54083",
    "line1": "1 54083U 22136AJ  26181.30119448 -.00000339  00000+0 -31818-5 0  9994",
    "line2": "2 54083  53.1588 188.4796 0001157  74.2250 285.8869 15.08833584203982"
  },
  {
    "name": "STARLINK-5183",
    "noradId": "54084",
    "line1": "1 54084U 22136AK  26181.30856488 -.00000321  00000+0 -20975-5 0  9990",
    "line2": "2 54084  53.1582 188.5231 0001169  79.6254 280.4869 15.08832370203981"
  },
  {
    "name": "STARLINK-5166",
    "noradId": "54085",
    "line1": "1 54085U 22136AL  26181.29846784  .00000597  00000+0  55600-4 0  9992",
    "line2": "2 54085  53.1593 188.4615 0001446  75.9260 284.1892 15.08822307203989"
  },
  {
    "name": "STARLINK-5211",
    "noradId": "54086",
    "line1": "1 54086U 22136AM  26181.30073977  .00000181  00000+0  29457-4 0  9991",
    "line2": "2 54086  53.1593 173.5162 0001268  82.9209 277.1927 15.08833189204190"
  },
  {
    "name": "STARLINK-5184",
    "noradId": "54087",
    "line1": "1 54087U 22136AN  26181.32689019  .00002395  00000+0  16846-3 0  9990",
    "line2": "2 54087  53.1584 187.9358 0001140  88.5419 271.5703 15.08847973203994"
  },
  {
    "name": "STARLINK-5153",
    "noradId": "54088",
    "line1": "1 54088U 22136AP  26181.30487975 -.00000209  00000+0  49887-5 0  9992",
    "line2": "2 54088  53.1589 188.5013 0001329  66.6976 293.4155 15.08832802203987"
  },
  {
    "name": "STARLINK-5143",
    "noradId": "54089",
    "line1": "1 54089U 22136AQ  26181.28279173  .00001308  00000+0  10024-3 0  9998",
    "line2": "2 54089  53.1591 188.3682 0000807  85.5528 274.5556 15.08832543203981"
  }
]